{
  "type": "FeatureCollection",
  "features": [
    {
      "type": "Feature",
      "properties": {
        "norad_id": 36585,
        "name": "GPS BIIF-1  (PRN 25)",
        "group": "gnss",
        "lat": -6.0613315837286565,
        "lon": -148.86695665737352,
        "alt_km": 20080.1056063788,
        "timestamp": "2025-12-26T22:28:06.026379+00:00",
        "meta_object_name": "GPS BIIF-1  (PRN 25)",
        "meta_object_id": "2010-022A",
        "meta_epoch": "2025-12-26T01:43:04.882656",
        "meta_mean_motion": 2.00553834,
        "meta_eccentricity": 0.01266071,
        "meta_inclination": 54.2982,
        "meta_ra_of_asc_node": 215.5361,
        "meta_arg_of_pericenter": 65.2423,
        "meta_mean_anomaly": 24.4831,
        "meta_ephemeris_type": 0,
        "meta_classification_type": "U",
        "meta_norad_cat_id": 36585,
        "meta_element_set_no": 999,
        "meta_rev_at_epoch": 11412,
        "meta_bstar": 0,
        "meta_mean_motion_dot": 8.1e-07,
        "meta_mean_motion_ddot": 0,
        "tle_line1": "1 36585U 10022A   25360.07158429  .00000081  00000+0  00000+0 0  9991",
        "tle_line2": "2 36585  54.2982 215.5361 0126607  65.2423  24.4831  2.00553834114127"
      },
      "geometry": {
        "type": "Point",
        "coordinates": [
          -148.86695665737352,
          -6.0613315837286565
        ]
      }
    },
    {
      "type": "Feature",
      "properties": {
        "norad_id": 36828,
        "name": "BEIDOU-2 IGSO-1 (C06)",
        "group": "gnss",
        "lat": 13.191284565920364,
        "lon": 174.22037785630522,
        "alt_km": 35989.318470735256,
        "timestamp": "2025-12-26T22:28:06.026391+00:00",
        "meta_object_name": "BEIDOU-2 IGSO-1 (C06)",
        "meta_object_id": "2010-036A",
        "meta_epoch": "2025-12-25T21:06:51.904224",
        "meta_mean_motion": 1.00272533,
        "meta_eccentricity": 0.00515074,
        "meta_inclination": 54.2892,
        "meta_ra_of_asc_node": 164.5291,
        "meta_arg_of_pericenter": 215.7944,
        "meta_mean_anomaly": 138.9488,
        "meta_ephemeris_type": 0,
        "meta_classification_type": "U",
        "meta_norad_cat_id": 36828,
        "meta_element_set_no": 999,
        "meta_rev_at_epoch": 5635,
        "meta_bstar": 0,
        "meta_mean_motion_dot": -5.2e-07,
        "meta_mean_motion_ddot": 0,
        "tle_line1": "1 36828U 10036A   25359.87976741 -.00000052  00000+0  00000+0 0  9996",
        "tle_line2": "2 36828  54.2892 164.5291 0051507 215.7944 138.9488  1.00272533 56350"
      },
      "geometry": {
        "type": "Point",
        "coordinates": [
          174.22037785630522,
          13.191284565920364
        ]
      }
    },
    {
      "type": "Feature",
      "properties": {
        "norad_id": 37210,
        "name": "BEIDOU-2 G4 (C04)",
        "group": "gnss",
        "lat": 0.9388219703601,
        "lon": -127.2619237248311,
        "alt_km": 35748.19437346261,
        "timestamp": "2025-12-26T22:28:06.026403+00:00",
        "meta_object_name": "BEIDOU-2 G4 (C04)",
        "meta_object_id": "2010-057A",
        "meta_epoch": "2025-12-26T19:05:50.023968",
        "meta_mean_motion": 1.00271236,
        "meta_eccentricity": 0.0010501,
        "meta_inclination": 3.2171,
        "meta_ra_of_asc_node": 69.8846,
        "meta_arg_of_pericenter": 194.1818,
        "meta_mean_anomaly": 278.0084,
        "meta_ephemeris_type": 0,
        "meta_classification_type": "U",
        "meta_norad_cat_id": 37210,
        "meta_element_set_no": 999,
        "meta_rev_at_epoch": 5556,
        "meta_bstar": 0,
        "meta_mean_motion_dot": -9.1e-07,
        "meta_mean_motion_ddot": 0,
        "tle_line1": "1 37210U 10057A   25360.79571787 -.00000091  00000+0  00000+0 0  9992",
        "tle_line2": "2 37210   3.2171  69.8846 0010501 194.1818 278.0084  1.00271236 55561"
      },
      "geometry": {
        "type": "Point",
        "coordinates": [
          -127.2619237248311,
          0.9388219703601
        ]
      }
    },
    {
      "type": "Feature",
      "properties": {
        "norad_id": 37256,
        "name": "BEIDOU-2 IGSO-2 (C07)",
        "group": "gnss",
        "lat": -47.81808091069779,
        "lon": 179.8431876495962,
        "alt_km": 35661.5413376439,
        "timestamp": "2025-12-26T22:28:06.026416+00:00",
        "meta_object_name": "BEIDOU-2 IGSO-2 (C07)",
        "meta_object_id": "2010-068A",
        "meta_epoch": "2025-12-26T15:56:02.027040",
        "meta_mean_motion": 1.00281973,
        "meta_eccentricity": 0.0048288,
        "meta_inclination": 47.8603,
        "meta_ra_of_asc_node": 273.9787,
        "meta_arg_of_pericenter": 215.9223,
        "meta_mean_anomaly": 312.6243,
        "meta_ephemeris_type": 0,
        "meta_classification_type": "U",
        "meta_norad_cat_id": 37256,
        "meta_element_set_no": 999,
        "meta_rev_at_epoch": 5506,
        "meta_bstar": 0,
        "meta_mean_motion_dot": -2.02e-06,
        "meta_mean_motion_ddot": 0,
        "tle_line1": "1 37256U 10068A   25360.66391235 -.00000202  00000+0  00000+0 0  9992",
        "tle_line2": "2 37256  47.8603 273.9787 0048288 215.9223 312.6243  1.00281973 55068"
      },
      "geometry": {
        "type": "Point",
        "coordinates": [
          179.8431876495962,
          -47.81808091069779
        ]
      }
    },
    {
      "type": "Feature",
      "properties": {
        "norad_id": 37384,
        "name": "BEIDOU-2 IGSO-3 (C08)",
        "group": "gnss",
        "lat": 36.492590958959454,
        "lon": -161.19015301740748,
        "alt_km": 35688.721900936944,
        "timestamp": "2025-12-26T22:28:06.026428+00:00",
        "meta_object_name": "BEIDOU-2 IGSO-3 (C08)",
        "meta_object_id": "2011-013A",
        "meta_epoch": "2025-12-26T18:04:14.277792",
        "meta_mean_motion": 1.00267391,
        "meta_eccentricity": 0.0035119,
        "meta_inclination": 62.1613,
        "meta_ra_of_asc_node": 41.7837,
        "meta_arg_of_pericenter": 187.8187,
        "meta_mean_anomaly": 244.1436,
        "meta_ephemeris_type": 0,
        "meta_classification_type": "U",
        "meta_norad_cat_id": 37384,
        "meta_element_set_no": 999,
        "meta_rev_at_epoch": 5393,
        "meta_bstar": 0,
        "meta_mean_motion_dot": -1.71e-06,
        "meta_mean_motion_ddot": 0,
        "tle_line1": "1 37384U 11013A   25360.75294303 -.00000171  00000+0  00000+0 0  9998",
        "tle_line2": "2 37384  62.1613  41.7837 0035119 187.8187 244.1436  1.00267391 53938"
      },
      "geometry": {
        "type": "Point",
        "coordinates": [
          -161.19015301740748,
          36.492590958959454
        ]
      }
    },
    {
      "type": "Feature",
      "properties": {
        "norad_id": 37605,
        "name": "GSAT-8 (GAGAN/PRN 127)",
        "group": "gnss",
        "lat": 1.1796872601063362,
        "lon": 127.68642179878067,
        "alt_km": 35816.530639511795,
        "timestamp": "2025-12-26T22:28:06.026441+00:00",
        "meta_object_name": "GSAT-8 (GAGAN/PRN 127)",
        "meta_object_id": "2011-022A",
        "meta_epoch": "2025-12-26T04:43:58.772064",
        "meta_mean_motion": 1.00271761,
        "meta_eccentricity": 0.0009057,
        "meta_inclination": 1.6826,
        "meta_ra_of_asc_node": 84.0509,
        "meta_arg_of_pericenter": 186.7441,
        "meta_mean_anomaly": 310.2135,
        "meta_ephemeris_type": 0,
        "meta_classification_type": "U",
        "meta_norad_cat_id": 37605,
        "meta_element_set_no": 999,
        "meta_rev_at_epoch": 5148,
        "meta_bstar": 0,
        "meta_mean_motion_dot": 1.06e-06,
        "meta_mean_motion_ddot": 0,
        "tle_line1": "1 37605U 11022A   25360.19720801  .00000106  00000+0  00000+0 0  9996",
        "tle_line2": "2 37605   1.6826  84.0509 0009057 186.7441 310.2135  1.00271761 51482"
      },
      "geometry": {
        "type": "Point",
        "coordinates": [
          127.68642179878067,
          1.1796872601063362
        ]
      }
    },
    {
      "type": "Feature",
      "properties": {
        "norad_id": 37763,
        "name": "BEIDOU-2 IGSO-4 (C09)",
        "group": "gnss",
        "lat": 1.2662295279572342,
        "lon": 168.11031683712025,
        "alt_km": 36195.581647009625,
        "timestamp": "2025-12-26T22:28:06.026454+00:00",
        "meta_object_name": "BEIDOU-2 IGSO-4 (C09)",
        "meta_object_id": "2011-038A",
        "meta_epoch": "2025-12-21T10:06:26.864064",
        "meta_mean_motion": 1.00280083,
        "meta_eccentricity": 0.01491557,
        "meta_inclination": 54.5854,
        "meta_ra_of_asc_node": 167.2693,
        "meta_arg_of_pericenter": 230.0944,
        "meta_mean_anomaly": 299.1265,
        "meta_ephemeris_type": 0,
        "meta_classification_type": "U",
        "meta_norad_cat_id": 37763,
        "meta_element_set_no": 999,
        "meta_rev_at_epoch": 5286,
        "meta_bstar": 0,
        "meta_mean_motion_dot": 5.9e-07,
        "meta_mean_motion_ddot": 0,
        "tle_line1": "1 37763U 11038A   25355.42114426  .00000059  00000+0  00000+0 0  9995",
        "tle_line2": "2 37763  54.5854 167.2693 0149155 230.0944 299.1265  1.00280083 52867"
      },
      "geometry": {
        "type": "Point",
        "coordinates": [
          168.11031683712025,
          1.2662295279572342
        ]
      }
    }
  ]
}